NORAD_CAT_ID,OBJECT_NAME,OBJECT_TYPE,EPOCH,MEAN_MOTION,ECCENTRICITY,INCLINATION,RA_OF_ASC_NODE,ARG_OF_PERICENTER,MEAN_ANOMALY,BSTAR,MEAN_MOTION_DOT,MEAN_MOTION_DDOT,TLE_LINE0,TLE_LINE1,TLE_LINE2,SEMIMAJOR_AXIS,PERIOD,APOGEE,PERIGEE,DECAYED
53910.0,STARLINK-5056,PAYLOAD,2023-03-22 15:53:49,15.08853801,0.0001368,53.2165,136.0828,98.2885,261.8262,0.00033722,5.085e-05,0.0,0 STARLINK-5056,1 53910U 22119AA  23081.66238106  .00005085  00000-0  33722-3 0  9997,2 53910  53.2165 136.0828 0001368  98.2885 261.8262 15.08853801 27902,6917.838,95.437,540.65,538.757,0.0
53910.0,STARLINK-5056,PAYLOAD,2023-03-23 03:01:31,15.08841566,0.0001101,53.2154,134.0024,91.2329,268.8789,-1.1121e-05,-4.65e-06,0.0,0 STARLINK-5056,1 53910U 22119AA  23082.12606283 -.00000465  00000-0 -11121-4 0  9993,2 53910  53.2154 134.0024 0001101  91.2329 268.8789 15.08841566 27970,6917.876,95.437,540.502,538.979,0.0
53910.0,STARLINK-5056,PAYLOAD,2023-03-23 10:58:27,15.08852622,0.0001284,53.2156,132.5157,91.1204,268.9936,0.00021236,3.095e-05,0.0,0 STARLINK-5056,1 53910U 22119AA  23082.45725917  .00003095  00000-0  21236-3 0  9992,2 53910  53.2156 132.5157 0001284  91.1204 268.9936 15.08852622 28448,6917.842,95.437,540.595,538.819,0.0
53910.0,STARLINK-5056,PAYLOAD,2023-03-23 20:30:46,15.08851117,0.0001541,53.2166,130.7341,75.5274,284.5889,0.00025954,3.846e-05,0.0,0 STARLINK-5056,1 53910U 22119AA  23082.85470044  .00003846  00000-0  25954-3 0  9999,2 53910  53.2166 130.7341 0001541  75.5274 284.5889 15.08851117 28509,6917.846,95.437,540.777,538.645,0.0
53910.0,STARLINK-5056,PAYLOAD,2023-03-24 09:13:50,15.08878652,0.0001688,53.2162,128.3555,71.6315,288.486,0.00091103,0.00014256,0.0,0 STARLINK-5056,1 53910U 22119AA  23083.38461299  .00014256  00000-0  91103-3 0  9996,2 53910  53.2162 128.3555 0001688  71.6315 288.4860 15.08878652 28167,6917.762,95.435,540.795,538.46,0.0
53910.0,STARLINK-5056,PAYLOAD,2023-03-24 20:21:32,15.08844854,0.0001336,53.216,126.2713,86.7201,273.3944,0.00010029,1.309e-05,0.0,0 STARLINK-5056,1 53910U 22119AA  23083.84829488  .00001309  00000-0  10029-3 0  9998,2 53910  53.2160 126.2713 0001336  86.7201 273.3944 15.08844854 28230,6917.866,95.437,540.655,538.806,0.0
53910.0,STARLINK-5056,PAYLOAD,2023-03-25 02:43:06,15.08810099,0.0001564,53.2151,125.0834,90.0345,270.0826,-0.00069886,-0.00011384,0.0,0 STARLINK-5056,1 53910U 22119AA  23084.11326874 -.00011384  00000-0 -69886-3 0  9991,2 53910  53.2151 125.0834 0001564  90.0345 270.0826 15.08810099 28272,6917.972,95.439,540.919,538.755,0.0
53910.0,STARLINK-5056,PAYLOAD,2023-03-25 13:50:49,15.08801196,0.0001263,53.216,122.9988,109.4106,250.7023,-0.0004013,-6.662e-05,0.0,0 STARLINK-5056,1 53910U 22119AA  23084.57695895 -.00006662  00000-0 -40130-3 0  9997,2 53910  53.2160 122.9988 0001263 109.4106 250.7023 15.08801196 28760,6917.999,95.44,540.738,538.99,0.0
53910.0,STARLINK-5056,PAYLOAD,2023-03-26 08:55:27,15.08838984,0.0001116,53.2159,119.4307,114.1044,246.0065,0.0015863,0.00025047,0.0,0 STARLINK-5056,1 53910U 22119AA  23085.37185097  .00025047  00000-0  15863-2 0  9994,2 53910  53.2159 119.4307 0001116 114.1044 246.0065 15.08838984 28461,6917.883,95.438,540.521,538.976,0.0
53910.0,STARLINK-5056,PAYLOAD,2023-03-26 13:41:37,15.08852141,0.0001081,53.2159,118.5395,106.7828,253.3283,0.0016443,0.00025987,0.0,0 STARLINK-5056,1 53910U 22119AA  23085.57057018  .00025987  00000-0  16443-2 0  9995,2 53910  53.2159 118.5395 0001081 106.7828 253.3283 15.08852141 28910,6917.843,95.437,540.456,538.96,0.0
53910.0,STARLINK-5056,PAYLOAD,2023-03-27 10:21:36,15.08884433,0.0001127,53.2165,114.6731,110.5118,249.5995,0.0014933,0.00023587,0.0,0 STARLINK-5056,1 53910U 22119AA  23086.43167463  .00023587  00000-0  14933-2 0  9993,2 53910  53.2165 114.6731 0001127 110.5118 249.5995 15.08884433 28628,6917.745,95.435,540.389,538.83,0.0
53910.0,STARLINK-5056,PAYLOAD,2023-03-27 18:18:32,15.08878982,0.0001395,53.2172,113.1868,113.8467,246.2671,0.0010381,0.0001629,0.0,0 STARLINK-5056,1 53910U 22119AA  23086.76287047  .00016290  00000-0  10381-2 0  9996,2 53910  53.2172 113.1868 0001395 113.8467 246.2671 15.08878982 28673,6917.761,95.435,540.591,538.661,0.0
53910.0,STARLINK-5056,PAYLOAD,2023-03-28 03:50:50,15.08867711,0.000244,53.2166,111.4059,98.7323,261.3945,0.00074186,0.00011547,0.0,0 STARLINK-5056,1 53910U 22119AA  23087.16030997  .00011547  00000-0  74186-3 0  9995,2 53910  53.2166 111.4059 0002440  98.7323 261.3945 15.08867711 28730,6917.796,95.436,541.349,537.973,0.0
53910.0,STARLINK-5056,PAYLOAD,2023-03-28 10:12:22,15.08861977,0.0001324,53.217,110.2127,113.3304,246.7827,0.00044037,6.732e-05,0.0,0 STARLINK-5056,1 53910U 22119AA  23087.42526575  .00006732  00000-0  44037-3 0  9998,2 53910  53.2170 110.2127 0001324 113.3304 246.7827 15.08861977 28779,6917.813,95.436,540.594,538.762,0.0
53910.0,STARLINK-5056,PAYLOAD,2023-03-28 18:09:18,15.08851732,0.0001249,53.2162,108.7268,92.9351,267.1784,0.00040702,6.198e-05,0.0,0 STARLINK-5056,1 53910U 22119AA  23087.75646751  .00006198  00000-0  40702-3 0  9994,2 53910  53.2162 108.7268 0001249  92.9351 267.1784 15.08851732 28821,6917.845,95.437,540.574,538.845,0.0
53910.0,STARLINK-5056,PAYLOAD,2023-03-29 08:27:46,15.08846549,0.0001372,53.2173,106.0509,102.7727,257.3418,-6.6592e-05,-1.348e-05,0.0,0 STARLINK-5056,1 53910U 22119AA  23088.35262698 -.00001348  00000-0 -66592-4 0  9995,2 53910  53.2173 106.0509 0001372 102.7727 257.3418 15.08846549 28911,6917.86,95.437,540.675,538.776,0.0
53910.0,STARLINK-5056,PAYLOAD,2023-03-29 11:38:33,15.08850103,0.0001382,53.2174,105.4555,91.2237,268.8913,4.8195e-05,4.79e-06,0.0,0 STARLINK-5056,1 53910U 22119AA  23088.48510519  .00000479  00000-0  48195-4 0  9998,2 53910  53.2174 105.4555 0001382  91.2237 268.8913 15.08850103 29352,6917.85,95.437,540.671,538.758,0.0
53910.0,STARLINK-5056,PAYLOAD,2023-03-29 18:00:06,15.08840088,0.0001197,53.2184,104.2675,108.6171,251.4951,-0.00010963,-2.032e-05,0.0,0 STARLINK-5056,1 53910U 22119AA  23088.75007011 -.00002032  00000-0 -10963-3 0  9996,2 53910  53.2184 104.2675 0001197 108.6171 251.4951 15.08840088 28975,6917.88,95.438,540.573,538.917,0.0
53910.0,STARLINK-5056,PAYLOAD,2023-03-30 13:04:43,15.08847711,0.0001296,53.2167,100.6977,98.0399,262.0741,0.00016985,2.417e-05,0.0,0 STARLINK-5056,1 53910U 22119AA  23089.54494861  .00002417  00000-0  16985-3 0  9992,2 53910  53.2167 100.6977 0001296  98.0399 262.0741 15.08847711 29511,6917.857,95.437,540.618,538.825,0.0
53910.0,STARLINK-5056,PAYLOAD,2023-03-31 03:23:12,15.0884144,0.0001445,53.2172,98.0204,100.2948,259.8207,0.00013991,1.94e-05,0.0,0 STARLINK-5056,1 53910U 22119AA  23090.14111311  .00001940  00000-0  13991-3 0  9990,2 53910  53.2172  98.0204 0001445 100.2948 259.8207 15.08841440 29189,6917.876,95.437,540.741,538.741,0.0
53910.0,STARLINK-5056,PAYLOAD,2023-03-31 09:44:44,15.08854269,0.0001454,53.2174,96.8307,99.6813,260.4344,0.00028458,4.246e-05,0.0,0 STARLINK-5056,1 53910U 22119AA  23090.40606683  .00004246  00000-0  28458-3 0  9996,2 53910  53.2174  96.8307 0001454  99.6813 260.4344 15.08854269 29221,6917.837,95.437,540.708,538.696,0.0
53910.0,STARLINK-5056,PAYLOAD,2023-03-31 17:41:40,15.08840266,0.0001517,53.2163,95.3466,78.4902,281.626,0.00012239,1.66e-05,0.0,0 STARLINK-5056,1 53910U 22119AA  23090.73727465  .00001660  00000-0  12239-3 0  9991,2 53910  53.2163  95.3466 0001517  78.4902 281.6260 15.08840266 29272,6917.88,95.438,540.794,538.695,0.0
53910.0,STARLINK-5056,PAYLOAD,2023-04-01 06:24:45,15.0883715,0.0001499,53.2171,92.9664,82.9099,277.2063,7.1548e-05,8.51e-06,0.0,0 STARLINK-5056,1 53910U 22119AA  23091.26719755  .00000851  00000-0  71548-4 0  9993,2 53910  53.2171  92.9664 0001499  82.9099 277.2063 15.08837150 29775,6917.889,95.438,540.791,538.717,0.0
53910.0,STARLINK-5056,PAYLOAD,2023-04-01 17:32:27,15.08841745,0.0001629,53.2174,90.8844,82.8258,277.292,0.00014587,2.034e-05,0.0,0 STARLINK-5056,1 53910U 22119AA  23091.73087679  .00002034  00000-0  14587-3 0  9992,2 53910  53.2174  90.8844 0001629  82.8258 277.2920 15.08841745 29841,6917.875,95.437,540.867,538.613,0.0
53910.0,STARLINK-5056,PAYLOAD,2023-04-02 04:40:09,15.08845955,0.0001513,53.2175,88.8029,86.4617,273.6548,0.00021463,3.13e-05,0.0,0 STARLINK-5056,1 53910U 22119AA  23092.19455544  .00003130  00000-0  21463-3 0  9992,2 53910  53.2175  88.8029 0001513  86.4617 273.6548 15.08845955 29499,6917.862,95.437,540.774,538.681,0.0
53910.0,STARLINK-5056,PAYLOAD,2023-04-02 09:26:18,15.08849873,0.0001536,53.2172,87.9098,90.4584,269.6584,0.00029673,4.439e-05,0.0,0 STARLINK-5056,1 53910U 22119AA  23092.39327368  .00004439  00000-0  29673-3 0  9990,2 53910  53.2172  87.9098 0001536  90.4584 269.6584 15.08849873 29943,6917.85,95.437,540.778,538.653,0.0
53910.0,STARLINK-5056,PAYLOAD,2023-04-03 04:30:56,15.08838743,0.0001424,53.2167,84.3404,94.7083,265.4072,0.00016357,2.316e-05,0.0,0 STARLINK-5056,1 53910U 22119AA  23093.18815816  .00002316  00000-0  16357-3 0  9995,2 53910  53.2167  84.3404 0001424  94.7083 265.4072 15.08838743 29643,6917.884,95.438,540.734,538.764,0.0
53910.0,STARLINK-5056,PAYLOAD,2023-04-03 09:17:06,15.08844384,0.0001253,53.2172,83.449,94.0264,266.0872,0.00017581,2.512e-05,0.0,0 STARLINK-5056,1 53910U 22119AA  23093.38687555  .00002512  00000-0  17581-3 0  9992,2 53910  53.2172  83.4490 0001253  94.0264 266.0872 15.08844384 30092,6917.867,95.437,540.599,538.865,0.0
53910.0,STARLINK-5056,PAYLOAD,2023-04-04 10:43:15,15.08854054,0.0001249,53.217,78.6924,100.0098,260.1035,0.0001926,2.78e-05,0.0,0 STARLINK-5056,1 53910U 22119AA  23094.44670823  .00002780  00000-0  19260-3 0  9993,2 53910  53.2170  78.6924 0001249 100.0098 260.1035 15.08854054 29837,6917.837,95.437,540.566,538.838,0.0
53910.0,STARLINK-5056,PAYLOAD,2023-04-05 04:12:31,15.08831495,0.0001161,53.2173,75.4234,90.2519,269.8606,-2.6052e-05,-7.02e-06,0.0,0 STARLINK-5056,1 53910U 22119AA  23095.17536358 -.00000702  00000-0 -26052-4 0  9990,2 53910  53.2173  75.4234 0001161  90.2519 269.8606 15.08831495 29946,6917.906,95.438,540.575,538.968,0.0
